[{"OBJECT_NAME":"SHIJIAN-6 04B (SJ-6 04B)","OBJECT_ID":"2010-051B","EPOCH":"2026-03-09T23:26:29.179104","MEAN_MOTION":14.99121194,"ECCENTRICITY":0.00088219,"INCLINATION":97.8755,"RA_OF_ASC_NODE":73.3683,"ARG_OF_PERICENTER":293.8275,"MEAN_ANOMALY":66.2023,"EPHEMERIS_TYPE":0,"CLASSIFICATION_TYPE":"U","NORAD_CAT_ID":37180,"ELEMENT_SET_NO":999,"REV_AT_EPOCH":84081,"BSTAR":0.00010220627,"MEAN_MOTION_DOT":1.181e-5,"MEAN_MOTION_DDOT":0},{"OBJECT_NAME":"STARLINK-6296","OBJECT_ID":"2023-078G","EPOCH":"2026-03-09T23:11:47.813568","MEAN_MOTION":14.98325501,"ECCENTRICITY":0.00027866,"INCLINATION":69.999,"RA_OF_ASC_NODE":303.9273,"ARG_OF_PERICENTER":270.4408,"MEAN_ANOMALY":89.6431,"EPHEMERIS_TYPE":0,"CLASSIFICATION_TYPE":"U","NORAD_CAT_ID":56773,"ELEMENT_SET_NO":999,"REV_AT_EPOCH":15370,"BSTAR":2.3787996e-5,"MEAN_MOTION_DOT":1.91e-6,"MEAN_MOTION_DDOT":0}]
